NORAD_CAT_ID,OBJECT_NAME,OBJECT_TYPE,EPOCH,MEAN_MOTION,ECCENTRICITY,INCLINATION,RA_OF_ASC_NODE,ARG_OF_PERICENTER,MEAN_ANOMALY,BSTAR,MEAN_MOTION_DOT,MEAN_MOTION_DDOT,TLE_LINE0,TLE_LINE1,TLE_LINE2,SEMIMAJOR_AXIS,PERIOD,APOGEE,PERIGEE,DECAYED
53977.0,STARLINK-5094,PAYLOAD,2023-09-24 02:09:33,15.08838351,0.0001649,53.2165,288.7128,96.0655,264.0525,-2.3398e-05,-6.6e-06,0.0,0 STARLINK-5094,1 53977U 22125P   23267.08997174 -.00000660  00000-0 -23398-4 0  9991,2 53977  53.2165 288.7128 0001649  96.0655 264.0525 15.08838351 53950,6917.885,95.438,540.891,538.61,0.0
53977.0,STARLINK-5094,PAYLOAD,2023-09-24 08:31:06,15.088372,0.0001628,53.2174,287.5236,102.5601,257.5574,3.4524e-06,-2.33e-06,0.0,0 STARLINK-5094,1 53977U 22125P   23267.35493487 -.00000233  00000-0  34524-5 0  9998,2 53977  53.2174 287.5236 0001628 102.5601 257.5574 15.08837200 53928,6917.889,95.438,540.88,538.628,0.0
53977.0,STARLINK-5094,PAYLOAD,2023-09-25 08:21:52,15.08846008,0.0001557,53.2175,283.0644,107.0342,253.082,0.0001023,1.341e-05,0.0,0 STARLINK-5094,1 53977U 22125P   23268.34852701  .00001341  00000-0  10230-3 0  9992,2 53977  53.2175 283.0644 0001557 107.0342 253.0820 15.08846008 54142,6917.862,95.437,540.804,538.65,0.0
53977.0,STARLINK-5094,PAYLOAD,2023-09-25 17:54:11,15.08850624,0.0001484,53.2173,281.2802,100.6709,259.445,5.4263e-05,5.76e-06,0.0,0 STARLINK-5094,1 53977U 22125P   23268.74596410  .00000576  00000-0  54263-4 0  9992,2 53977  53.2173 281.2802 0001484 100.6709 259.4450 15.08850624 54138,6917.848,95.437,540.74,538.686,0.0
53977.0,STARLINK-5094,PAYLOAD,2023-09-26 08:12:40,15.08840186,0.000146,53.2174,278.6036,97.7608,262.355,0.00010659,1.409e-05,0.0,0 STARLINK-5094,1 53977U 22125P   23269.34213045  .00001409  00000-0  10659-3 0  9995,2 53977  53.2174 278.6036 0001460  97.7608 262.3550 15.08840186 54299,6917.88,95.438,540.755,538.735,0.0
53977.0,STARLINK-5094,PAYLOAD,2023-09-27 08:03:27,15.08841507,0.0001555,53.2169,274.1415,91.9109,268.2061,8.1098e-06,-1.59e-06,0.0,0 STARLINK-5094,1 53977U 22125P   23270.33573263 -.00000159  00000-0  81098-5 0  9996,2 53977  53.2169 274.1415 0001555  91.9109 268.2061 15.08841507 54371,6917.876,95.437,540.817,538.665,0.0
53977.0,STARLINK-5094,PAYLOAD,2023-09-27 23:57:19,15.08835568,0.0001769,53.217,271.1684,80.476,279.6432,-1.4762e-05,-5.23e-06,0.0,0 STARLINK-5094,1 53977U 22125P   23270.99813883 -.00000523  00000-0 -14762-4 0  9992,2 53977  53.2170 271.1684 0001769  80.4760 279.6432 15.08835568 54548,6917.894,95.438,540.983,538.535,0.0
53977.0,STARLINK-5094,PAYLOAD,2023-09-28 06:18:51,15.0883461,0.0001872,53.217,269.9797,71.615,288.5046,1.3309e-05,-7.6e-07,0.0,0 STARLINK-5094,1 53977U 22125P   23271.26309965 -.00000076  00000-0  13309-4 0  9992,2 53977  53.2170 269.9797 0001872  71.6150 288.5046 15.08834610 54512,6917.897,95.438,541.057,538.467,0.0
53977.0,STARLINK-5094,PAYLOAD,2023-09-29 09:20:24,15.0884177,0.0001732,53.2161,264.9227,80.9732,279.1456,9.9938e-05,1.303e-05,0.0,0 STARLINK-5094,1 53977U 22125P   23272.38917390  .00001303  00000-0  99938-4 0  9998,2 53977  53.2161 264.9227 0001732  80.9732 279.1456 15.08841770 54751,6917.875,95.437,540.938,538.542,0.0
53977.0,STARLINK-5094,PAYLOAD,2023-09-30 04:25:01,15.08846474,0.0001567,53.2156,261.3514,100.0195,260.0974,0.00011165,1.49e-05,0.0,0 STARLINK-5094,1 53977U 22125P   23273.18404929  .00001490  00000-0  11165-3 0  9998,2 53977  53.2156 261.3514 0001567 100.0195 260.0974 15.08846474 54804,6917.861,95.437,540.81,538.642,0.0
53977.0,STARLINK-5094,PAYLOAD,2023-10-01 02:40:26,15.08838153,0.0001635,53.2161,257.1888,109.2305,250.8864,-1.8288e-05,-5.79e-06,0.0,0 STARLINK-5094,1 53977U 22125P   23274.11141825 -.00000579  00000-0 -18288-4 0  9998,2 53977  53.2161 257.1888 0001635 109.2305 250.8864 15.08838153 55011,6917.886,95.438,540.882,538.62,0.0
53977.0,STARLINK-5094,PAYLOAD,2023-10-01 05:51:12,15.08841691,0.0001522,53.2158,256.5955,94.1061,266.0105,1.7066e-05,-1.6e-07,0.0,0 STARLINK-5094,1 53977U 22125P   23274.24389631 -.00000016  00000-0  17066-4 0  9999,2 53977  53.2158 256.5955 0001522  94.1061 266.0105 15.08841691 54962,6917.875,95.437,540.793,538.687,0.0
53977.0,STARLINK-5094,PAYLOAD,2023-10-01 21:45:04,15.08832954,0.0001561,53.2164,253.6263,95.5807,264.5363,3.7467e-06,-2.28e-06,0.0,0 STARLINK-5094,1 53977U 22125P   23274.90630346 -.00000228  00000-0  37467-5 0  9997,2 53977  53.2164 253.6263 0001561  95.5807 264.5363 15.08832954 55068,6917.902,95.438,540.847,538.687,0.0
53977.0,STARLINK-5094,PAYLOAD,2023-10-02 02:31:14,15.08831968,0.0001548,53.2168,252.7326,100.6298,259.4869,-9.7109e-05,-1.833e-05,0.0,0 STARLINK-5094,1 53977U 22125P   23275.10502815 -.00001833  00000-0 -97109-4 0  9991,2 53977  53.2168 252.7326 0001548 100.6298 259.4869 15.08831968 55168,6917.905,95.438,540.841,538.699,0.0
53977.0,STARLINK-5094,PAYLOAD,2023-10-02 07:17:23,15.08837487,0.0001574,53.2167,251.8396,96.0638,264.0533,-5.4232e-05,-1.151e-05,0.0,0 STARLINK-5094,1 53977U 22125P   23275.30374343 -.00001151  00000-0 -54232-4 0  9999,2 53977  53.2167 251.8396 0001574  96.0638 264.0533 15.08837487 55194,6917.888,95.438,540.842,538.664,0.0
53977.0,STARLINK-5094,PAYLOAD,2023-10-02 15:14:18,15.08839779,0.0001659,53.2176,250.3529,102.3487,257.7691,-3.5264e-05,-8.49e-06,0.0,0 STARLINK-5094,1 53977U 22125P   23275.63494175 -.00000849  00000-0 -35264-4 0  9998,2 53977  53.2176 250.3529 0001659 102.3487 257.7691 15.08839779 55171,6917.881,95.438,540.894,538.598,0.0
53977.0,STARLINK-5094,PAYLOAD,2023-10-03 05:32:46,15.08845317,0.0001505,53.2162,247.676,107.9397,252.176,0.00012166,1.649e-05,0.0,0 STARLINK-5094,1 53977U 22125P   23276.23109748  .00001649  00000-0  12166-3 0  9996,2 53977  53.2162 247.6760 0001505 107.9397 252.1760 15.08845317 55332,6917.864,95.437,540.77,538.688,0.0
53977.0,STARLINK-5094,PAYLOAD,2023-10-03 07:08:10,15.08835103,0.0001769,53.2162,247.3787,116.8195,243.2978,0.00032306,4.857e-05,0.0,0 STARLINK-5094,1 53977U 22125P   23276.29733888  .00004857  00000-0  32306-3 0  9992,2 53977  53.2162 247.3787 0001769 116.8195 243.2978 15.08835103 55272,6917.895,95.438,540.984,538.537,0.0
53977.0,STARLINK-5094,PAYLOAD,2023-10-04 06:58:56,15.08869536,0.0001428,53.2163,242.9176,92.596,267.5196,-0.0003675,-6.137e-05,0.0,0 STARLINK-5094,1 53977U 22125P   23277.29093329 -.00006137  00000-0 -36750-3 0  9994,2 53977  53.2163 242.9176 0001428  92.5960 267.5196 15.08869536 55490,6917.79,95.436,540.643,538.667,0.0
53977.0,STARLINK-5094,PAYLOAD,2023-10-04 14:55:53,15.0883751,0.0001396,53.2164,241.4305,89.6338,270.4814,5.0006e-05,5.08e-06,0.0,0 STARLINK-5094,1 53977U 22125P   23277.62214780  .00000508  00000-0  50006-4 0  9992,2 53977  53.2164 241.4305 0001396  89.6338 270.4814 15.08837510 55542,6917.888,95.438,540.719,538.787,0.0
53977.0,STARLINK-5094,PAYLOAD,2023-10-04 21:17:26,15.08838455,0.0001511,53.2157,240.2429,89.8757,270.2408,7.5136e-05,9.08e-06,0.0,0 STARLINK-5094,1 53977U 22125P   23277.88710776  .00000908  00000-0  75136-4 0  9991,2 53977  53.2157 240.2429 0001511  89.8757 270.2408 15.08838455 55517,6917.885,95.438,540.795,538.705,0.0
53977.0,STARLINK-5094,PAYLOAD,2023-10-05 06:49:43,15.08853861,0.0001493,53.2164,238.4563,90.5608,269.5556,0.0001054,1.39e-05,0.0,0 STARLINK-5094,1 53977U 22125P   23278.28453611  .00001390  00000-0  10540-3 0  9991,2 53977  53.2164 238.4563 0001493  90.5608 269.5556 15.08853861 55643,6917.838,95.437,540.736,538.67,0.0
53977.0,STARLINK-5094,PAYLOAD,2023-10-05 14:46:39,15.08846857,0.0001431,53.2167,236.9703,92.7854,267.3302,7.6926e-05,9.37e-06,0.0,0 STARLINK-5094,1 53977U 22125P   23278.61574034  .00000937  00000-0  76926-4 0  9998,2 53977  53.2167 236.9703 0001431  92.7854 267.3302 15.08846857 55691,6917.859,95.437,540.714,538.734,0.0
53977.0,STARLINK-5094,PAYLOAD,2023-10-06 06:40:31,15.08847035,0.0001835,53.2168,233.9953,88.2803,271.8399,0.00018054,2.587e-05,0.0,0 STARLINK-5094,1 53977U 22125P   23279.27813707  .00002587  00000-0  18054-3 0  9994,2 53977  53.2168 233.9953 0001835  88.2803 271.8399 15.08847035 55727,6917.859,95.437,540.993,538.454,0.0
53977.0,STARLINK-5094,PAYLOAD,2023-10-06 14:37:28,15.08832142,0.0001996,53.2154,232.5111,77.5142,282.6073,1.7256e-05,-1.4e-07,0.0,0 STARLINK-5094,1 53977U 22125P   23279.60935196 -.00000014  00000-0  17256-4 0  9996,2 53977  53.2154 232.5111 0001996  77.5142 282.6073 15.08832142 55843,6917.904,95.438,541.15,538.389,0.0
53977.0,STARLINK-5094,PAYLOAD,2023-10-07 06:31:18,15.08841246,0.000158,53.2171,229.5325,99.6445,260.4725,-3.9746e-05,-9.21e-06,0.0,0 STARLINK-5094,1 53977U 22125P   23280.27174715 -.00000921  00000-0 -39746-4 0  9999,2 53977  53.2171 229.5325 0001580  99.6445 260.4725 15.08841246 55949,6917.877,95.437,540.835,538.649,0.0
53977.0,STARLINK-5094,PAYLOAD,2023-10-08 03:11:19,15.08848529,0.0001379,53.2172,225.6672,99.3991,260.7157,0.00011063,1.474e-05,0.0,0 STARLINK-5094,1 53977U 22125P   23281.13285939  .00001474  00000-0  11063-3 0  9999,2 53977  53.2172 225.6672 0001379  99.3991 260.7157 15.08848529 56079,6917.854,95.437,540.673,538.765,0.0
53977.0,STARLINK-5094,PAYLOAD,2023-10-08 04:46:42,15.08851767,0.0001408,53.2175,225.3697,101.5027,258.6123,0.00014218,1.976e-05,0.0,0 STARLINK-5094,1 53977U 22125P   23281.19909973  .00001976  00000-0  14218-3 0  9998,2 53977  53.2175 225.3697 0001408 101.5027 258.6123 15.08851767 56016,6917.844,95.437,540.683,538.735,0.0
53977.0,STARLINK-5094,PAYLOAD,2023-10-08 20:40:34,15.08836793,0.0001475,53.2183,222.4004,89.3181,270.798,0.00018448,2.649e-05,0.0,0 STARLINK-5094,1 53977U 22125P   23281.86150679  .00002649  00000-0  18448-3 0  9990,2 53977  53.2183 222.4004 0001475  89.3181 270.7980 15.08836793 56112,6917.89,95.438,540.776,538.735,0.0
53977.0,STARLINK-5094,PAYLOAD,2023-10-09 03:02:06,15.08849783,0.0001363,53.2162,221.2116,78.7957,281.3189,0.00021954,3.209e-05,0.0,0 STARLINK-5094,1 53977U 22125P   23282.12646207  .00003209  00000-0  21954-3 0  9996,2 53977  53.2162 221.2116 0001363  78.7957 281.3189 15.08849783 56223,6917.85,95.437,540.658,538.773,0.0
